
    {
        "ARG_OF_PERICENTER": 80.3133,
        "BSTAR": 0.0003191,
        "CLASSIFICATION_TYPE": "U",
        "ECCENTRICITY": 0.0129646,
        "ELEMENT_SET_NO": 999,
        "EPHEMERIS_TYPE": 0,
        "EPOCH": "2026-05-04T18:48:52.504992",
        "INCLINATION": 64.7693,
        "MEAN_ANOMALY": 281.2595,
        "MEAN_MOTION": 14.91204727,
        "MEAN_MOTION_DDOT": 0,
        "MEAN_MOTION_DOT": 3.56e-05,
        "NORAD_CAT_ID": 40965,
        "OBJECT_ID": "2015-058B",
        "OBJECT_NAME": "AEROCUBE 5C",
        "RA_OF_ASC_NODE": 37.5888,
        "REV_AT_EPOCH": 35918
    },
    {
        "ARG_OF_PERICENTER": 79.0725,
        "BSTAR": 0.00041133,
        "CLASSIFICATION_TYPE": "U",
        "ECCENTRICITY": 0.0119491,
        "ELEMENT_SET_NO": 999,
        "EPHEMERIS_TYPE": 0,
        "EPOCH": "2026-05-04T18:27:38.285568",
        "INCLINATION": 64.7646,
        "MEAN_ANOMALY": 282.3806,
        "MEAN_MOTION": 14.95383887,
        "MEAN_MOTION_DDOT": 0,
        "MEAN_MOTION_DOT": 5.08e-05,
        "NORAD_CAT_ID": 40966,
        "OBJECT_ID": "2015-058C",
        "OBJECT_NAME": "AEROCUBE 7",
        "RA_OF_ASC_NODE": 20.7747,
        "REV_AT_EPOCH": 35946
    },
    {
        "ARG_OF_PERICENTER": 73.5905,
        "BSTAR": 0.00033415,
        "CLASSIFICATION_TYPE": "U",
        "ECCENTRICITY": 0.0128715,
        "ELEMENT_SET_NO": 999,
        "EPHEMERIS_TYPE": 0,
        "EPOCH": "2026-05-04T19:36:54.795168",
        "INCLINATION": 64.7768,
        "MEAN_ANOMALY": 287.9311,
        "MEAN_MOTION": 14.90710807,
        "MEAN_MOTION_DDOT": 0,
        "MEAN_MOTION_DOT": 3.677e-05,
        "NORAD_CAT_ID": 40967,
        "OBJECT_ID": "2015-058D",
        "OBJECT_NAME": "FOX-1A (AO-85)",
        "RA_OF_ASC_NODE": 53.7352,
        "REV_AT_EPOCH": 10710
    },
    {
        "ARG_OF_PERICENTER": 70.4294,
        "BSTAR": 0.00042327,
        "CLASSIFICATION_TYPE": "U",
        "ECCENTRICITY": 0.0117222,
        "ELEMENT_SET_NO": 999,
        "EPHEMERIS_TYPE": 0,
        "EPOCH": "2026-05-04T19:39:37.103616",
        "INCLINATION": 64.7772,
        "MEAN_ANOMALY": 290.9433,
        "MEAN_MOTION": 14.95560228,
        "MEAN_MOTION_DDOT": 0,
        "MEAN_MOTION_DOT": 5.23e-05,
        "NORAD_CAT_ID": 40968,
        "OBJECT_ID": "2015-058E",
        "OBJECT_NAME": "SINOD-D 1",
        "RA_OF_ASC_NODE": 34.687,
        "REV_AT_EPOCH": 11017
    },
    {
        "ARG_OF_PERICENTER": 36.6313,
        "BSTAR": 0.001396,
        "CLASSIFICATION_TYPE": "U",
        "ECCENTRICITY": 0.003194,
        "ELEMENT_SET_NO": 999,
        "EPHEMERIS_TYPE": 0,
        "EPOCH": "2026-05-04T17:10:58.861920",
        "INCLINATION": 64.7541,
        "MEAN_ANOMALY": 323.7004,
        "MEAN_MOTION": 15.52366638,
        "MEAN_MOTION_DDOT": 0,
        "MEAN_MOTION_DOT": 0.00088238,
        "NORAD_CAT_ID": 40970,
        "OBJECT_ID": "2015-058G",
        "OBJECT_NAME": "SNAP-3 ALICE",
        "RA_OF_ASC_NODE": 253.1844,
        "REV_AT_EPOCH": 11012
    },
    {
        "ARG_OF_PERICENTER": 75.834,
        "BSTAR": 0.00030925479,
        "CLASSIFICATION_TYPE": "U",
        "ECCENTRICITY": 0.01305135,
        "ELEMENT_SET_NO": 999,
        "EPHEMERIS_TYPE": 0,
        "EPOCH": "2026-05-04T05:23:46.354848",
        "INCLINATION": 64.7775,
        "MEAN_ANOMALY": 285.7232,
        "MEAN_MOTION": 14.90331803,
        "MEAN_MOTION_DDOT": 0,
        "MEAN_MOTION_DOT": 3.369e-05,
        "NORAD_CAT_ID": 40971,
        "OBJECT_ID": "2015-058H",
        "OBJECT_NAME": "LMRST-SAT",
        "RA_OF_ASC_NODE": 51.831,
        "REV_AT_EPOCH": 10700
    },
    {
        "ARG_OF_PERICENTER": 40.5083,
        "BSTAR": 0.0012746,
        "CLASSIFICATION_TYPE": "U",
        "ECCENTRICITY": 0.0032647,
        "ELEMENT_SET_NO": 999,
        "EPHEMERIS_TYPE": 0,
        "EPOCH": "2026-05-04T16:11:13.032096",
        "INCLINATION": 64.746,
        "MEAN_ANOMALY": 319.8481,
        "MEAN_MOTION": 15.53446534,
        "MEAN_MOTION_DDOT": 0,
        "MEAN_MOTION_DOT": 0.00083812,
        "NORAD_CAT_ID": 40972,
        "OBJECT_ID": "2015-058J",
        "OBJECT_NAME": "SNAP-3 EDDIE",
        "RA_OF_ASC_NODE": 244.3591,
        "REV_AT_EPOCH": 11225
    },
    {
        "ARG_OF_PERICENTER": 77.2109,
        "BSTAR": 0.00038143,
        "CLASSIFICATION_TYPE": "U",
        "ECCENTRICITY": 0.0122768,
        "ELEMENT_SET_NO": 999,
        "EPHEMERIS_TYPE": 0,
        "EPOCH": "2026-05-04T16:51:22.790304",
        "INCLINATION": 64.7708,
        "MEAN_ANOMALY": 284.269,
        "MEAN_MOTION": 14.9395645,
        "MEAN_MOTION_DDOT": 0,
        "MEAN_MOTION_DOT": 4.551e-05,
        "NORAD_CAT_ID": 40973,
        "OBJECT_ID": "2015-058K",
        "OBJECT_NAME": "PROPCUBE 3",
        "RA_OF_ASC_NODE": 28.3668,
        "REV_AT_EPOCH": 10830
    },
    {
        "ARG_OF_PERICENTER": 66.4811,
        "BSTAR": 0.00065694,
        "CLASSIFICATION_TYPE": "U",
        "ECCENTRICITY": 0.0078201,
        "ELEMENT_SET_NO": 999,
        "EPHEMERIS_TYPE": 0,
        "EPOCH": "2026-05-04T18:01:20.506656",
        "INCLINATION": 64.7599,
        "MEAN_ANOMALY": 294.4505,
        "MEAN_MOTION": 15.15300559,
        "MEAN_MOTION_DDOT": 0,
        "MEAN_MOTION_DOT": 0.00013242,
        "NORAD_CAT_ID": 40974,
        "OBJECT_ID": "2015-058L",
        "OBJECT_NAME": "BISONSAT",
        "RA_OF_ASC_NODE": 313.9736,
        "REV_AT_EPOCH": 10903
    },
    {
        "ARG_OF_PERICENTER": 73.3407,
        "BSTAR": 0.00047895,
        "CLASSIFICATION_TYPE": "U",
        "ECCENTRICITY": 0.0104761,
        "ELEMENT_SET_NO": 999,
        "EPHEMERIS_TYPE": 0,
        "EPOCH": "2026-05-04T18:42:50.730048",
        "INCLINATION": 64.7667,
        "MEAN_ANOMALY": 287.918,
        "MEAN_MOTION": 15.01845246,
        "MEAN_MOTION_DDOT": 0,
        "MEAN_MOTION_DOT": 6.88e-05,
        "NORAD_CAT_ID": 40975,
        "OBJECT_ID": "2015-058M",
        "OBJECT_NAME": "SNAP-3 JIMI",
        "RA_OF_ASC_NODE": 357.063,
        "REV_AT_EPOCH": 10770
    },
    {
        "ARG_OF_PERICENTER": 77.8948,
        "BSTAR": 0.0003224,
        "CLASSIFICATION_TYPE": "U",
        "ECCENTRICITY": 0.0129359,
        "ELEMENT_SET_NO": 999,
        "EPHEMERIS_TYPE": 0,
        "EPOCH": "2026-05-04T19:27:51.549120",
        "INCLINATION": 64.7755,
        "MEAN_ANOMALY": 283.6623,
        "MEAN_MOTION": 14.88974023,
        "MEAN_MOTION_DDOT": 0,
        "MEAN_MOTION_DOT": 3.382e-05,
        "NORAD_CAT_ID": 40976,
        "OBJECT_ID": "2015-058N",
        "OBJECT_NAME": "PROPCUBE 1 (FLORA)",
        "RA_OF_ASC_NODE": 69.6422,
        "REV_AT_EPOCH": 10980
    },
    {
        "ARG_OF_PERICENTER": 75.4384,
        "BSTAR": 0.00041324,
        "CLASSIFICATION_TYPE": "U",
        "ECCENTRICITY": 0.0117865,
        "ELEMENT_SET_NO": 999,
        "EPHEMERIS_TYPE": 0,
        "EPOCH": "2026-05-04T19:02:28.881312",
        "INCLINATION": 64.7741,
        "MEAN_ANOMALY": 285.9767,
        "MEAN_MOTION": 14.93680037,
        "MEAN_MOTION_DDOT": 0,
        "MEAN_MOTION_DOT": 4.851e-05,
        "NORAD_CAT_ID": 40977,
        "OBJECT_ID": "2015-058P",
        "OBJECT_NAME": "SINOD-D 3",
        "RA_OF_ASC_NODE": 51.2877,
        "REV_AT_EPOCH": 10827
    },
    {
        "ARG_OF_PERICENTER": 315.7644,
        "BSTAR": 0.00097139,
        "CLASSIFICATION_TYPE": "U",
        "ECCENTRICITY": 0.0006247,
        "ELEMENT_SET_NO": 999,
        "EPHEMERIS_TYPE": 0,
        "EPOCH": "2026-05-04T19:54:44.879040",
        "INCLINATION": 30.9902,
        "MEAN_ANOMALY": 44.2512,
        "MEAN_MOTION": 15.75803615,
        "MEAN_MOTION_DDOT": 0,
        "MEAN_MOTION_DOT": 0.00159251,
        "NORAD_CAT_ID": 41340,
        "OBJECT_ID": "2016-012D",
        "OBJECT_NAME": "HORYU-4",
        "RA_OF_ASC_NODE": 31.805,
        "REV_AT_EPOCH": 56393
    }