AEROCUBE 5C             
1 40965U 15058B   26124.78394103  .00003560  00000+0  31910-3 0  9993
2 40965  64.7693  37.5888 0129646  80.3133 281.2595 14.91204727359181
AEROCUBE 7              
1 40966U 15058C   26124.76919312  .00005080  00000+0  41133-3 0  9994
2 40966  64.7646  20.7747 0119491  79.0725 282.3806 14.95383887359464
FOX-1A (AO-85)          
1 40967U 15058D   26124.81730087  .00003677  00000+0  33415-3 0  9995
2 40967  64.7768  53.7352 0128715  73.5905 287.9311 14.90710807107101
SINOD-D 1               
1 40968U 15058E   26124.81917944  .00005230  00000+0  42327-3 0  9994
2 40968  64.7772  34.6870 0117222  70.4294 290.9433 14.95560228110173
SNAP-3 ALICE            
1 40970U 15058G   26124.71595905  .00088238  00000+0  13960-2 0  9994
2 40970  64.7541 253.1844 0031940  36.6313 323.7004 15.52366638110124
LMRST-SAT               
1 40971U 15058H   26124.22484207  .00003369  00000+0  30925-3 0  9996
2 40971  64.7775  51.8310 0130513  75.8340 285.7232 14.90331803107006
SNAP-3 EDDIE            
1 40972U 15058J   26124.67445639  .00083812  00000+0  12746-2 0  9993
2 40972  64.7460 244.3591 0032647  40.5083 319.8481 15.53446534112256
PROPCUBE 3              
1 40973U 15058K   26124.70234711  .00004551  00000+0  38143-3 0  9998
2 40973  64.7708  28.3668 0122768  77.2109 284.2690 14.93956450108301
BISONSAT                
1 40974U 15058L   26124.75093179  .00013242  00000+0  65694-3 0  9993
2 40974  64.7599 313.9736 0078201  66.4811 294.4505 15.15300559109038
SNAP-3 JIMI             
1 40975U 15058M   26124.77975382  .00006880  00000+0  47895-3 0  9994
2 40975  64.7667 357.0630 0104761  73.3407 287.9180 15.01845246107706
PROPCUBE 1 (FLORA)      
1 40976U 15058N   26124.81101330  .00003382  00000+0  32240-3 0  9996
2 40976  64.7755  69.6422 0129359  77.8948 283.6623 14.88974023109807
SINOD-D 3               
1 40977U 15058P   26124.79338983  .00004851  00000+0  41324-3 0  9995
2 40977  64.7741  51.2877 0117865  75.4384 285.9767 14.93680037108270
HORYU-4                 
1 41340U 16012D   26124.82968610  .00159251  00000+0  97139-3 0  9991
2 41340  30.9902  31.8050 0006247 315.7644  44.2512 15.75803615563938
